{
  "type": "FeatureCollection",
  "features": [
    {
      "type": "Feature",
      "properties": {
        "norad_id": 31692,
        "name": "FENGYUN 1C DEB",
        "group": "fengyun-1c-debris",
        "lat": -31.710298917282422,
        "lon": 166.3589454529514,
        "alt_km": 893.9301298416858,
        "timestamp": "2025-12-21T07:34:34.799738+00:00",
        "meta_object_name": "FENGYUN 1C DEB",
        "meta_object_id": "1999-025CDA",
        "meta_epoch": "2025-12-18T22:43:06.035232",
        "meta_mean_motion": 14.18414405,
        "meta_eccentricity": 0.00880976,
        "meta_inclination": 99.1757,
        "meta_ra_of_asc_node": 349.6414,
        "meta_arg_of_pericenter": 64.1143,
        "meta_mean_anomaly": 296.9081,
        "meta_ephemeris_type": 0,
        "meta_classification_type": "U",
        "meta_norad_cat_id": 31692,
        "meta_element_set_no": 999,
        "meta_rev_at_epoch": 58297,
        "meta_bstar": 0.002131478,
        "meta_mean_motion_dot": 4.527e-05,
        "meta_mean_motion_ddot": 0,
        "tle_line1": "1 31692U 99025CDA 25352.94659763  .00004527  00000+0  21315-2 0  9993",
        "tle_line2": "2 31692  99.1757 349.6414 0088097  64.1143 296.9081 14.18414405582971"
      },
      "geometry": {
        "type": "Point",
        "coordinates": [
          166.3589454529514,
          -31.710298917282422
        ]
      }
    },
    {
      "type": "Feature",
      "properties": {
        "norad_id": 31695,
        "name": "FENGYUN 1C DEB",
        "group": "fengyun-1c-debris",
        "lat": -69.72694243290634,
        "lon": -123.37542861055523,
        "alt_km": 575.9756192469758,
        "timestamp": "2025-12-21T07:34:34.799747+00:00",
        "meta_object_name": "FENGYUN 1C DEB",
        "meta_object_id": "1999-025CDD",
        "meta_epoch": "2025-12-20T12:31:09.702912",
        "meta_mean_motion": 14.73845928,
        "meta_eccentricity": 0.01749697,
        "meta_inclination": 98.2649,
        "meta_ra_of_asc_node": 78.9886,
        "meta_arg_of_pericenter": 203.7711,
        "meta_mean_anomaly": 155.5345,
        "meta_ephemeris_type": 0,
        "meta_classification_type": "U",
        "meta_norad_cat_id": 31695,
        "meta_element_set_no": 999,
        "meta_rev_at_epoch": 66086,
        "meta_bstar": 0.0012316414,
        "meta_mean_motion_dot": 0.00010264,
        "meta_mean_motion_ddot": 0,
        "tle_line1": "1 31695U 99025CDD 25354.52164008  .00010264  00000+0  12316-2 0  9991",
        "tle_line2": "2 31695  98.2649  78.9886 0174969 203.7711 155.5345 14.73845928660862"
      },
      "geometry": {
        "type": "Point",
        "coordinates": [
          -123.37542861055523,
          -69.72694243290634
        ]
      }
    },
    {
      "type": "Feature",
      "properties": {
        "norad_id": 31714,
        "name": "FENGYUN 1C DEB",
        "group": "fengyun-1c-debris",
        "lat": 69.62291369476722,
        "lon": -128.67033240053328,
        "alt_km": 605.5796089986734,
        "timestamp": "2025-12-21T07:34:34.799756+00:00",
        "meta_object_name": "FENGYUN 1C DEB",
        "meta_object_id": "1999-025CDM",
        "meta_epoch": "2025-12-20T07:37:36.052032",
        "meta_mean_motion": 14.88778002,
        "meta_eccentricity": 0.00168865,
        "meta_inclination": 99.0321,
        "meta_ra_of_asc_node": 255.5489,
        "meta_arg_of_pericenter": 277.819,
        "meta_mean_anomaly": 208.4855,
        "meta_ephemeris_type": 0,
        "meta_classification_type": "U",
        "meta_norad_cat_id": 31714,
        "meta_element_set_no": 999,
        "meta_rev_at_epoch": 96162,
        "meta_bstar": 0.0040437912,
        "meta_mean_motion_dot": 0.0003806,
        "meta_mean_motion_ddot": 0,
        "tle_line1": "1 31714U 99025CDM 25354.31777838  .00038060  00000+0  40438-2 0  9991",
        "tle_line2": "2 31714  99.0321 255.5489 0016886 277.8190 208.4855 14.88778002961624"
      },
      "geometry": {
        "type": "Point",
        "coordinates": [
          -128.67033240053328,
          69.62291369476722
        ]
      }
    },
    {
      "type": "Feature",
      "properties": {
        "norad_id": 31715,
        "name": "FENGYUN 1C DEB",
        "group": "fengyun-1c-debris",
        "lat": 80.63347133066597,
        "lon": 88.05759020676886,
        "alt_km": 578.3076449157816,
        "timestamp": "2025-12-21T07:34:34.799765+00:00",
        "meta_object_name": "FENGYUN 1C DEB",
        "meta_object_id": "1999-025CDN",
        "meta_epoch": "2025-12-18T06:24:34.673472",
        "meta_mean_motion": 14.5220919,
        "meta_eccentricity": 0.01870722,
        "meta_inclination": 99.2921,
        "meta_ra_of_asc_node": 181.6763,
        "meta_arg_of_pericenter": 103.0013,
        "meta_mean_anomaly": 259.2139,
        "meta_ephemeris_type": 0,
        "meta_classification_type": "U",
        "meta_norad_cat_id": 31715,
        "meta_element_set_no": 999,
        "meta_rev_at_epoch": 61797,
        "meta_bstar": 0.00065902481,
        "meta_mean_motion_dot": 3.301e-05,
        "meta_mean_motion_ddot": 0,
        "tle_line1": "1 31715U 99025CDN 25352.26706798  .00003301  00000+0  65902-3 0  9995",
        "tle_line2": "2 31715  99.2921 181.6763 0187072 103.0013 259.2139 14.52209190617970"
      },
      "geometry": {
        "type": "Point",
        "coordinates": [
          88.05759020676886,
          80.63347133066597
        ]
      }
    },
    {
      "type": "Feature",
      "properties": {
        "norad_id": 31716,
        "name": "FENGYUN 1C DEB",
        "group": "fengyun-1c-debris",
        "lat": -25.349873980317277,
        "lon": -102.1191474622475,
        "alt_km": 890.1765246063142,
        "timestamp": "2025-12-21T07:34:34.799775+00:00",
        "meta_object_name": "FENGYUN 1C DEB",
        "meta_object_id": "1999-025CDP",
        "meta_epoch": "2025-12-20T05:01:58.810944",
        "meta_mean_motion": 14.03638057,
        "meta_eccentricity": 0.01309965,
        "meta_inclination": 98.555,
        "meta_ra_of_asc_node": 252.7504,
        "meta_arg_of_pericenter": 70.3781,
        "meta_mean_anomaly": 80.0994,
        "meta_ephemeris_type": 0,
        "meta_classification_type": "U",
        "meta_norad_cat_id": 31716,
        "meta_element_set_no": 999,
        "meta_rev_at_epoch": 94224,
        "meta_bstar": 0.0010460257,
        "meta_mean_motion_dot": 1.733e-05,
        "meta_mean_motion_ddot": 0,
        "tle_line1": "1 31716U 99025CDP 25354.20970846  .00001733  00000+0  10460-2 0  9994",
        "tle_line2": "2 31716  98.5550 252.7504 0130996  70.3781  80.0994 14.03638057942249"
      },
      "geometry": {
        "type": "Point",
        "coordinates": [
          -102.1191474622475,
          -25.349873980317277
        ]
      }
    },
    {
      "type": "Feature",
      "properties": {
        "norad_id": 31720,
        "name": "FENGYUN 1C DEB",
        "group": "fengyun-1c-debris",
        "lat": 67.01492840214732,
        "lon": -113.8749491994559,
        "alt_km": 586.2081922770894,
        "timestamp": "2025-12-21T07:34:34.799784+00:00",
        "meta_object_name": "FENGYUN 1C DEB",
        "meta_object_id": "1999-025CDT",
        "meta_epoch": "2025-12-17T00:28:52.679424",
        "meta_mean_motion": 14.71860526,
        "meta_eccentricity": 0.01002517,
        "meta_inclination": 99.048,
        "meta_ra_of_asc_node": 263.4173,
        "meta_arg_of_pericenter": 110.3863,
        "meta_mean_anomaly": 250.8144,
        "meta_ephemeris_type": 0,
        "meta_classification_type": "U",
        "meta_norad_cat_id": 31720,
        "meta_element_set_no": 999,
        "meta_rev_at_epoch": 98299,
        "meta_bstar": 0.00056875806,
        "meta_mean_motion_dot": 3.786e-05,
        "meta_mean_motion_ddot": 0,
        "tle_line1": "1 31720U 99025CDT 25351.02005416  .00003786  00000+0  56876-3 0  9990",
        "tle_line2": "2 31720  99.0480 263.4173 0100251 110.3863 250.8144 14.71860526982993"
      },
      "geometry": {
        "type": "Point",
        "coordinates": [
          -113.8749491994559,
          67.01492840214732
        ]
      }
    },
    {
      "type": "Feature",
      "properties": {
        "norad_id": 31721,
        "name": "FENGYUN 1C DEB",
        "group": "fengyun-1c-debris",
        "lat": 7.460697284656433,
        "lon": -26.148016358896488,
        "alt_km": 1195.945902131055,
        "timestamp": "2025-12-21T07:34:34.799793+00:00",
        "meta_object_name": "FENGYUN 1C DEB",
        "meta_object_id": "1999-025CDU",
        "meta_epoch": "2025-12-20T16:39:27.253152",
        "meta_mean_motion": 13.73784424,
        "meta_eccentricity": 0.03176003,
        "meta_inclination": 99.7817,
        "meta_ra_of_asc_node": 334.5098,
        "meta_arg_of_pericenter": 162.9449,
        "meta_mean_anomaly": 13.7173,
        "meta_ephemeris_type": 0,
        "meta_classification_type": "U",
        "meta_norad_cat_id": 31721,
        "meta_element_set_no": 999,
        "meta_rev_at_epoch": 67495,
        "meta_bstar": 0.00024056154,
        "meta_mean_motion_dot": 2.78e-06,
        "meta_mean_motion_ddot": 0,
        "tle_line1": "1 31721U 99025CDU 25354.69406543  .00000278  00000+0  24056-3 0  9991",
        "tle_line2": "2 31721  99.7817 334.5098 0317600 162.9449  13.7173 13.73784424674957"
      },
      "geometry": {
        "type": "Point",
        "coordinates": [
          -26.148016358896488,
          7.460697284656433
        ]
      }
    }
  ]
}